     2.10           NAVIGATION DATA                         RINEX VERSION / TYPE
GN-RINEX 1.3        Geo++ GmbH          01-DEC-17 08:00     PGM / RUN BY / DATE
RXN2RXN 1.0w                            2018-05-23 01:41    COMMENT
                                                            END OF HEADER
25 17 12  1  8  0  0.0-0.498484820127D-03-0.625277607469D-11 0.000000000000D+00
    0.680000000000D+02-0.671875000000D+02 0.463483591666D-08-0.998124162209D+00
   -0.339187681675D-05 0.674533727579D-02 0.209733843803D-05 0.515371618080D+04
    0.460800000000D+06 0.176951289177D-06-0.158907600022D+01 0.137835741043D-06
    0.975539843562D+00 0.347781250000D+03 0.805438205643D+00-0.846999566646D-08
   -0.252510518077D-09 0.100000000000D+01 0.197700000000D+04 0.000000000000D+00
    0.000000000000D+00 0.000000000000D+00 0.558793544769D-08 0.680000000000D+02
    0.460800000000D+06 0.000000000000D+00 0.000000000000D+00 0.000000000000D+00
14 17 12  1  8  0  0.0-0.896975398064D-04-0.795807864051D-12 0.000000000000D+00
    0.500000000000D+02 0.283125000000D+02 0.405945480687D-08 0.256062291129D+01
    0.152550637722D-05 0.925093644764D-02 0.129677355289D-04 0.515372263718D+04
    0.460800000000D+06 0.106170773506D-06 0.267330949259D+01-0.819563865662D-07
    0.961721302250D+00 0.127156250000D+03-0.195280647905D+01-0.756817238762D-08
   -0.202508435289D-09 0.100000000000D+01 0.197700000000D+04 0.000000000000D+00
    0.000000000000D+00 0.000000000000D+00-0.977888703346D-08 0.500000000000D+02
    0.460800000000D+06 0.000000000000D+00 0.000000000000D+00 0.000000000000D+00
18 17 12  1  8  0  0.0 0.633175019175D-03 0.227373675443D-12 0.000000000000D+00
    0.490000000000D+02-0.370000000000D+02 0.569345144082D-08-0.190313696362D+01
   -0.177137553692D-05 0.182112336624D-01 0.422075390816D-05 0.515363089371D+04
    0.460800000000D+06 0.420957803726D-06 0.149741978356D+01 0.106170773506D-06
    0.925685577674D+00 0.277156250000D+03-0.176954942449D+01-0.848642492223D-08
   -0.341085636157D-09 0.100000000000D+01 0.197700000000D+04 0.000000000000D+00
    0.000000000000D+00 0.000000000000D+00-0.111758708954D-07 0.490000000000D+02
    0.460800000000D+06 0.000000000000D+00 0.000000000000D+00 0.000000000000D+00
31 17 12  1  8  0  0.0 0.158493407071D-03-0.261479726760D-11 0.000000000000D+00
    0.400000000000D+01 0.113062500000D+03 0.450233039728D-08-0.186890347659D+00
    0.597164034843D-05 0.876509095542D-02 0.528804957867D-05 0.515356802750D+04
    0.460800000000D+06 0.726431608200D-07-0.260865785421D+01-0.633299350739D-07
    0.965368955355D+00 0.275625000000D+03-0.210536494673D+00-0.836534845034D-08
    0.414660129402D-09 0.100000000000D+01 0.197700000000D+04 0.000000000000D+00
    0.000000000000D+00 0.000000000000D+00-0.135041773319D-07 0.400000000000D+01
    0.460800000000D+06 0.000000000000D+00 0.000000000000D+00 0.000000000000D+00
18 17 12  1 10  0  0.0 0.633176881820D-03 0.227373675443D-12 0.000000000000D+00
    0.600000000000D+02-0.335937500000D+02 0.606310969571D-08-0.852989082145D+00
   -0.157766044140D-05 0.182111647446D-01 0.493973493576D-05 0.515362847900D+04
    0.468000000000D+06-0.206753611565D-06 0.149735645968D+01 0.262632966042D-06
    0.925680011271D+00 0.268562500000D+03-0.176947965939D+01-0.915645283159D-08
   -0.373229832235D-09 0.100000000000D+01 0.197700000000D+04 0.000000000000D+00
    0.000000000000D+00 0.000000000000D+00-0.111758708954D-07 0.600000000000D+02
    0.468000000000D+06 0.000000000000D+00 0.000000000000D+00 0.000000000000D+00
10 17 12  1 10  0  0.0 0.121377874166D-03 0.716227077646D-11 0.000000000000D+00
    0.101000000000D+03-0.402500000000D+02 0.505949646262D-08-0.244605675528D+00
   -0.229291617870D-05 0.300769635942D-02 0.528246164322D-05 0.515365800858D+04
    0.468000000000D+06 0.633299350739D-07 0.154627475351D+01 0.372529029846D-07
    0.959988930752D+00 0.277406250000D+03-0.289024877007D+01-0.839499254228D-08
   -0.480019994760D-09 0.100000000000D+01 0.197700000000D+04 0.000000000000D+00
    0.000000000000D+00 0.000000000000D+00 0.186264514923D-08 0.101000000000D+03
    0.468000000000D+06 0.000000000000D+00 0.000000000000D+00 0.000000000000D+00
12 17 12  1 10  0  0.0 0.362398568541D-03-0.170530256582D-11 0.000000000000D+00
    0.101000000000D+03-0.733750000000D+02 0.427803534020D-08 0.487080166147D+00
   -0.399909913540D-05 0.662288651802D-02 0.306405127048D-05 0.515368021965D+04
    0.468000000000D+06-0.540167093277D-07-0.153152054881D+01 0.119209289551D-06
    0.987759037980D+00 0.336812500000D+03 0.908198093410D+00-0.834856203683D-08
   -0.335371112410D-09 0.100000000000D+01 0.197700000000D+04 0.000000000000D+00
    0.000000000000D+00 0.000000000000D+00-0.125728547573D-07 0.101000000000D+03
    0.468000000000D+06 0.000000000000D+00 0.000000000000D+00 0.000000000000D+00
25 17 12  1 10  0  0.0-0.498529523611D-03-0.625277607469D-11 0.000000000000D+00
    0.760000000000D+02-0.665937500000D+02 0.463805033627D-08 0.520489911808D-01
   -0.347383320332D-05 0.674551562406D-02 0.214949250221D-05 0.515371659470D+04
    0.468000000000D+06 0.316649675369D-07-0.158913751300D+01 0.135973095894D-06
    0.975537627241D+00 0.349093750000D+03 0.805420804232D+00-0.856071373095D-08
   -0.256082095419D-09 0.100000000000D+01 0.197700000000D+04 0.000000000000D+00
    0.000000000000D+00 0.000000000000D+00 0.558793544769D-08 0.760000000000D+02
    0.468000000000D+06 0.000000000000D+00 0.000000000000D+00 0.000000000000D+00
21 17 12  1 10  0  0.0-0.456981826574D-03 0.363797880709D-11 0.000000000000D+00
    0.200000000000D+02 0.369687500000D+02 0.536022327481D-08 0.648829637559D-01
    0.210292637348D-05 0.241262922063D-01 0.883638858795D-05 0.515355365753D+04
    0.468000000000D+06-0.318512320518D-06 0.457752987432D+00-0.149011611938D-07
    0.941963891388D+00 0.205718750000D+03-0.162045813411D+01-0.886929801329D-08
    0.610025410007D-09 0.100000000000D+01 0.197700000000D+04 0.000000000000D+00
    0.000000000000D+00 0.000000000000D+00-0.977888703346D-08 0.200000000000D+02
    0.468000000000D+06 0.000000000000D+00 0.000000000000D+00 0.000000000000D+00
20 17 12  1 10  0  0.0 0.494324602187D-03 0.102318153949D-11 0.000000000000D+00
    0.590000000000D+02-0.308125000000D+02 0.587845914713D-08 0.286127215773D+01
   -0.158511102200D-05 0.464510812890D-02 0.448524951935D-05 0.515375109291D+04
    0.468000000000D+06 0.121071934700D-06 0.144624637957D+01 0.223517417908D-07
    0.927095377198D+00 0.274312500000D+03 0.173071306175D+01-0.875072164554D-08
   -0.350014579512D-09 0.100000000000D+01 0.197700000000D+04 0.000000000000D+00
    0.000000000000D+00 0.000000000000D+00-0.838190317154D-08 0.590000000000D+02
    0.468000000000D+06 0.000000000000D+00 0.000000000000D+00 0.000000000000D+00
15 17 12  1 10  0  0.0-0.357326120138D-03-0.113686837722D-12 0.000000000000D+00
    0.130000000000D+02 0.178125000000D+02 0.486841707483D-08 0.308390438532D+01
    0.821426510811D-06 0.999020854943D-02 0.134352594614D-04 0.515366366196D+04
    0.468000000000D+06-0.931322574615D-08 0.251871435767D+01-0.122934579849D-06
    0.928729607373D+00 0.102250000000D+03 0.642054890266D+00-0.800997650482D-08
   -0.457161899771D-09 0.100000000000D+01 0.197700000000D+04 0.000000000000D+00
    0.000000000000D+00 0.000000000000D+00-0.107102096081D-07 0.130000000000D+02
    0.468000000000D+06 0.000000000000D+00 0.000000000000D+00 0.000000000000D+00
31 17 12  1 10  0  0.0 0.158474780619D-03-0.261479726760D-11 0.000000000000D+00
    0.500000000000D+01 0.120343750000D+03 0.446304304651D-08 0.863310877666D+00
    0.636465847492D-05 0.876451958902D-02 0.553950667381D-05 0.515356726074D+04
    0.468000000000D+06 0.126659870148D-06-0.260871765099D+01 0.521540641785D-07
    0.965372268864D+00 0.270500000000D+03-0.210491580162D+00-0.826891586211D-08
    0.383230248792D-09 0.100000000000D+01 0.197700000000D+04 0.000000000000D+00
    0.000000000000D+00 0.000000000000D+00-0.135041773319D-07 0.500000000000D+01
    0.468000000000D+06 0.000000000000D+00 0.000000000000D+00 0.000000000000D+00
24 17 12  1 10  0  0.0-0.429092906415D-04-0.454747350886D-12 0.000000000000D+00
    0.470000000000D+02 0.143718750000D+03 0.496342103212D-08 0.202278693258D+01
    0.741891562939D-05 0.637251418084D-02 0.612251460552D-05 0.515367110825D+04
    0.468000000000D+06-0.782310962677D-07-0.267714208341D+01 0.149011611938D-07
    0.943758300853D+00 0.251312500000D+03 0.483520560229D+00-0.852535511526D-08
    0.401088135502D-09 0.100000000000D+01 0.197700000000D+04 0.000000000000D+00
    0.000000000000D+00 0.000000000000D+00 0.279396772385D-08 0.470000000000D+02
    0.468000000000D+06 0.000000000000D+00 0.000000000000D+00 0.000000000000D+00
32 17 12  1 10  0  0.0-0.527281314135D-03-0.238742359215D-11 0.000000000000D+00
    0.130000000000D+02 0.158437500000D+02 0.418017412103D-08-0.161476912365D+01
    0.931322574615D-06 0.149467471056D-02 0.138040632010D-04 0.515361871147D+04
    0.468000000000D+06-0.298023223877D-07 0.258907660502D+01-0.143423676491D-06
    0.957657030556D+00 0.114593750000D+03-0.266032422649D+01-0.773853662683D-08
   -0.425374861428D-09 0.100000000000D+01 0.197700000000D+04 0.000000000000D+00
    0.000000000000D+00 0.000000000000D+00 0.465661287308D-09 0.130000000000D+02
    0.468000000000D+06 0.000000000000D+00 0.000000000000D+00 0.000000000000D+00
14 17 12  1 10  0  0.0-0.897031277418D-04-0.795807864051D-12 0.000000000000D+00
    0.570000000000D+02 0.355625000000D+02 0.399623788792D-08-0.267238438854D+01
    0.193901360035D-05 0.924892374314D-02 0.137519091368D-04 0.515372634315D+04
    0.468000000000D+06 0.260770320892D-07 0.267325557674D+01-0.689178705215D-07
    0.961719731076D+00 0.113250000000D+03-0.195283791862D+01-0.752424198631D-08
   -0.261439461432D-09 0.100000000000D+01 0.197700000000D+04 0.000000000000D+00
    0.000000000000D+00 0.000000000000D+00-0.977888703346D-08 0.570000000000D+02
    0.468000000000D+06 0.000000000000D+00 0.000000000000D+00 0.000000000000D+00
